{"fetched_at":"2026-07-17T06:37:51.309Z","source":"https://celestrak.org/NORAD/elements/gp.php?GROUP=oneweb&FORMAT=JSON","constellation":"oneweb","records":[{"OBJECT_NAME":"ONEWEB-0311","OBJECT_ID":"2021-075Y","EPOCH":"2026-07-16T11:35:37.883904","CLASSIFICATION_TYPE":"U","MEAN_MOTION":13.176481,"ECCENTRICITY":0.0001724,"INCLINATION":87.9146,"RA_OF_ASC_NODE":0.0348,"ARG_OF_PERICENTER":78.925,"MEAN_ANOMALY":281.2075,"EPHEMERIS_TYPE":0,"NORAD_CAT_ID":49097,"ELEMENT_SET_NO":999,"REV_AT_EPOCH":23748,"BSTAR":-0.00013467,"MEAN_MOTION_DOT":-3.9e-7,"MEAN_MOTION_DDOT":0},{"OBJECT_NAME":"ONEWEB-0312","OBJECT_ID":"2021-075Z","EPOCH":"2026-07-16T11:57:30.483072","CLASSIFICATION_TYPE":"U","MEAN_MOTION":13.17649035,"ECCENTRICITY":0.0002047,"INCLINATION":87.9143,"RA_OF_ASC_NODE":0.0422,"ARG_OF_PERICENTER":83.7623,"MEAN_ANOMALY":276.3741,"EPHEMERIS_TYPE":0,"NORAD_CAT_ID":49098,"ELEMENT_SET_NO":999,"REV_AT_EPOCH":23746,"BSTAR":0.00015264,"MEAN_MOTION_DOT":7.2e-7,"MEAN_MOTION_DDOT":0},{"OBJECT_NAME":"ONEWEB-0313","OBJECT_ID":"2021-075AA","EPOCH":"2026-07-16T12:04:34.917888","CLASSIFICATION_TYPE":"U","MEAN_MOTION":13.17650089,"ECCENTRICITY":0.0001826,"INCLINATION":87.9143,"RA_OF_ASC_NODE":0.0461,"ARG_OF_PERICENTER":89.4961,"MEAN_ANOMALY":270.638,"EPHEMERIS_TYPE":0,"NORAD_CAT_ID":49099,"ELEMENT_SET_NO":999,"REV_AT_EPOCH":23745,"BSTAR":0.000085665,"MEAN_MOTION_DOT":4.6e-7,"MEAN_MOTION_DDOT":0},{"OBJECT_NAME":"ONEWEB-0314","OBJECT_ID":"2021-075AB","EPOCH":"2026-07-16T20:22:55.045344","CLASSIFICATION_TYPE":"U","MEAN_MOTION":13.17651199,"ECCENTRICITY":0.000204,"INCLINATION":87.9157,"RA_OF_ASC_NODE":359.9531,"ARG_OF_PERICENTER":82.5291,"MEAN_ANOMALY":277.6072,"EPHEMERIS_TYPE":0,"NORAD_CAT_ID":49100,"ELEMENT_SET_NO":999,"REV_AT_EPOCH":23747,"BSTAR":-0.00011455,"MEAN_MOTION_DOT":-3.2e-7,"MEAN_MOTION_DDOT":0},{"OBJECT_NAME":"ONEWEB-0315","OBJECT_ID":"2021-075AC","EPOCH":"2026-07-16T09:46:34.837824","CLASSIFICATION_TYPE":"U","MEAN_MOTION":13.12442023,"ECCENTRICITY":0.0001578,"INCLINATION":87.8973,"RA_OF_ASC_NODE":344.8354,"ARG_OF_PERICENTER":86.1021,"MEAN_ANOMALY":274.0288,"EPHEMERIS_TYPE":0,"NORAD_CAT_ID":49101,"ELEMENT_SET_NO":999,"REV_AT_EPOCH":23900,"BSTAR":0.00098049,"MEAN_MOTION_DOT":0.00000365,"MEAN_MOTION_DDOT":0},{"OBJECT_NAME":"ONEWEB-0316","OBJECT_ID":"2021-075AD","EPOCH":"2026-07-16T08:54:49.197600","CLASSIFICATION_TYPE":"U","MEAN_MOTION":13.18686862,"ECCENTRICITY":0.0001952,"INCLINATION":87.9194,"RA_OF_ASC_NODE":329.6522,"ARG_OF_PERICENTER":98.8305,"MEAN_ANOMALY":261.3048,"EPHEMERIS_TYPE":0,"NORAD_CAT_ID":49102,"ELEMENT_SET_NO":999,"REV_AT_EPOCH":24105,"BSTAR":0.000011653,"MEAN_MOTION_DOT":1.8e-7,"MEAN_MOTION_DDOT":0},{"OBJECT_NAME":"ONEWEB-0317","OBJECT_ID":"2021-075AE","EPOCH":"2026-07-16T09:51:27.542016","CLASSIFICATION_TYPE":"U","MEAN_MOTION":13.12442038,"ECCENTRICITY":0.0002488,"INCLINATION":87.8967,"RA_OF_ASC_NODE":344.8584,"ARG_OF_PERICENTER":107.564,"MEAN_ANOMALY":252.576,"EPHEMERIS_TYPE":0,"NORAD_CAT_ID":49103,"ELEMENT_SET_NO":999,"REV_AT_EPOCH":23902,"BSTAR":0.00093501,"MEAN_MOTION_DOT":0.00000349,"MEAN_MOTION_DDOT":0},{"OBJECT_NAME":"ONEWEB-0318","OBJECT_ID":"2021-075AF","EPOCH":"2026-07-16T19:45:20.356128","CLASSIFICATION_TYPE":"U","MEAN_MOTION":13.18686837,"ECCENTRICITY":0.0001811,"INCLINATION":87.9198,"RA_OF_ASC_NODE":329.5649,"ARG_OF_PERICENTER":94.4748,"MEAN_ANOMALY":265.6592,"EPHEMERIS_TYPE":0,"NORAD_CAT_ID":49104,"ELEMENT_SET_NO":999,"REV_AT_EPOCH":24107,"BSTAR":-0.00012058,"MEAN_MOTION_DOT":-3.5e-7,"MEAN_MOTION_DDOT":0},{"OBJECT_NAME":"ONEWEB-0319","OBJECT_ID":"2021-075AG","EPOCH":"2026-07-16T11:38:03.482592","CLASSIFICATION_TYPE":"U","MEAN_MOTION":13.17648524,"ECCENTRICITY":0.0001522,"INCLINATION":87.9144,"RA_OF_ASC_NODE":0.0395,"ARG_OF_PERICENTER":80.2256,"MEAN_ANOMALY":279.9047,"EPHEMERIS_TYPE":0,"NORAD_CAT_ID":49105,"ELEMENT_SET_NO":999,"REV_AT_EPOCH":23746,"BSTAR":0.00017967,"MEAN_MOTION_DOT":8.3e-7,"MEAN_MOTION_DDOT":0},{"OBJECT_NAME":"ONEWEB-0323","OBJECT_ID":"2021-075AH","EPOCH":"2026-07-16T20:23:18.831264","CLASSIFICATION_TYPE":"U","MEAN_MOTION":13.12443503,"ECCENTRICITY":0.0001606,"INCLINATION":87.8973,"RA_OF_ASC_NODE":344.753,"ARG_OF_PERICENTER":79.6558,"MEAN_ANOMALY":280.4752,"EPHEMERIS_TYPE":0,"NORAD_CAT_ID":49106,"ELEMENT_SET_NO":999,"REV_AT_EPOCH":23844,"BSTAR":0.00075584,"MEAN_MOTION_DOT":0.00000285,"MEAN_MOTION_DDOT":0},{"OBJECT_NAME":"ONEWEB-0329","OBJECT_ID":"2021-075AJ","EPOCH":"2026-07-16T11:50:11.704128","CLASSIFICATION_TYPE":"U","MEAN_MOTION":13.17648698,"ECCENTRICITY":0.0001918,"INCLINATION":87.9146,"RA_OF_ASC_NODE":0.0384,"ARG_OF_PERICENTER":87.903,"MEAN_ANOMALY":272.2321,"EPHEMERIS_TYPE":0,"NORAD_CAT_ID":49107,"ELEMENT_SET_NO":999,"REV_AT_EPOCH":23744,"BSTAR":-0.00054972,"MEAN_MOTION_DOT":-0.00000201,"MEAN_MOTION_DDOT":0},{"OBJECT_NAME":"ONEWEB-0330","OBJECT_ID":"2021-075AK","EPOCH":"2026-07-16T11:55:14.871360","CLASSIFICATION_TYPE":"U","MEAN_MOTION":13.17647124,"ECCENTRICITY":0.000202,"INCLINATION":87.9148,"RA_OF_ASC_NODE":0.0492,"ARG_OF_PERICENTER":89.683,"MEAN_ANOMALY":270.4533,"EPHEMERIS_TYPE":0,"NORAD_CAT_ID":49108,"ELEMENT_SET_NO":999,"REV_AT_EPOCH":23748,"BSTAR":0.0000066174,"MEAN_MOTION_DOT":1.5e-7,"MEAN_MOTION_DDOT":0},{"OBJECT_NAME":"ONEWEB-0292","OBJECT_ID":"2021-083A","EPOCH":"2026-07-16T17:20:20.615712","CLASSIFICATION_TYPE":"U","MEAN_MOTION":13.13469202,"ECCENTRICITY":0.0001814,"INCLINATION":87.8981,"RA_OF_ASC_NODE":314.3602,"ARG_OF_PERICENTER":97.087,"MEAN_ANOMALY":263.0465,"EPHEMERIS_TYPE":0,"NORAD_CAT_ID":49186,"ELEMENT_SET_NO":999,"REV_AT_EPOCH":23480,"BSTAR":-0.00032914,"MEAN_MOTION_DOT":-0.00000107,"MEAN_MOTION_DDOT":0},{"OBJECT_NAME":"ONEWEB-0303","OBJECT_ID":"2021-083B","EPOCH":"2026-07-16T19:40:28.324992","CLASSIFICATION_TYPE":"U","MEAN_MOTION":13.18684264,"ECCENTRICITY":0.0001805,"INCLINATION":87.9195,"RA_OF_ASC_NODE":329.5637,"ARG_OF_PERICENTER":94.5099,"MEAN_ANOMALY":265.624,"EPHEMERIS_TYPE":0,"NORAD_CAT_ID":49187,"ELEMENT_SET_NO":999,"REV_AT_EPOCH":23388,"BSTAR":-0.00006402,"MEAN_MOTION_DOT":-1.2e-7,"MEAN_MOTION_DDOT":0},{"OBJECT_NAME":"ONEWEB-0306","OBJECT_ID":"2021-083C","EPOCH":"2026-07-16T08:30:20.651616","CLASSIFICATION_TYPE":"U","MEAN_MOTION":13.18684857,"ECCENTRICITY":0.0002108,"INCLINATION":87.9199,"RA_OF_ASC_NODE":329.6455,"ARG_OF_PERICENTER":101.024,"MEAN_ANOMALY":259.1129,"EPHEMERIS_TYPE":0,"NORAD_CAT_ID":49188,"ELEMENT_SET_NO":999,"REV_AT_EPOCH":23386,"BSTAR":-0.000064385,"MEAN_MOTION_DOT":-1.2e-7,"MEAN_MOTION_DDOT":0},{"OBJECT_NAME":"ONEWEB-0307","OBJECT_ID":"2021-083D","EPOCH":"2026-07-16T13:32:24.762336","CLASSIFICATION_TYPE":"U","MEAN_MOTION":13.13468308,"ECCENTRICITY":0.0001911,"INCLINATION":87.8981,"RA_OF_ASC_NODE":314.3892,"ARG_OF_PERICENTER":96.5661,"MEAN_ANOMALY":263.5685,"EPHEMERIS_TYPE":0,"NORAD_CAT_ID":49189,"ELEMENT_SET_NO":999,"REV_AT_EPOCH":23478,"BSTAR":0.00017494,"MEAN_MOTION_DOT":7.7e-7,"MEAN_MOTION_DDOT":0}]}
