ONEWEB-0311             
1 49097U 21075Y   26197.48307736 -.00000039  00000+0 -13467-3 0  9994
2 49097  87.9146   0.0348 0001724  78.9250 281.2075 13.17648100237486
ONEWEB-0312             
1 49098U 21075Z   26197.49826948  .00000072  00000+0  15264-3 0  9999
2 49098  87.9143   0.0422 0002047  83.7623 276.3741 13.17649035237465
ONEWEB-0313             
1 49099U 21075AA  26197.50318192  .00000046  00000+0  85665-4 0  9993
2 49099  87.9143   0.0461 0001826  89.4961 270.6380 13.17650089237457
ONEWEB-0314             
1 49100U 21075AB  26197.84924821 -.00000032  00000+0 -11455-3 0  9997
2 49100  87.9157 359.9531 0002040  82.5291 277.6072 13.17651199237478
ONEWEB-0315             
1 49101U 21075AC  26197.40734766  .00000365  00000+0  98049-3 0  9998
2 49101  87.8973 344.8354 0001578  86.1021 274.0288 13.12442023239006
ONEWEB-0316             
1 49102U 21075AD  26197.37140275  .00000018  00000+0  11653-4 0  9993
2 49102  87.9194 329.6522 0001952  98.8305 261.3048 13.18686862241050
ONEWEB-0317             
1 49103U 21075AE  26197.41073544  .00000349  00000+0  93501-3 0  9991
2 49103  87.8967 344.8584 0002488 107.5640 252.5760 13.12442038239026
ONEWEB-0318             
1 49104U 21075AF  26197.82315227 -.00000035  00000+0 -12058-3 0  9996
2 49104  87.9198 329.5649 0001811  94.4748 265.6592 13.18686837241077
ONEWEB-0319             
1 49105U 21075AG  26197.48476253  .00000083  00000+0  17967-3 0  9991
2 49105  87.9144   0.0395 0001522  80.2256 279.9047 13.17648524237465
ONEWEB-0323             
1 49106U 21075AH  26197.84952351  .00000285  00000+0  75584-3 0  9993
2 49106  87.8973 344.7530 0001606  79.6558 280.4752 13.12443503238448
ONEWEB-0329             
1 49107U 21075AJ  26197.49319102 -.00000201  00000+0 -54972-3 0  9994
2 49107  87.9146   0.0384 0001918  87.9030 272.2321 13.17648698237441
ONEWEB-0330             
1 49108U 21075AK  26197.49669990  .00000015  00000+0  66174-5 0  9998
2 49108  87.9148   0.0492 0002020  89.6830 270.4533 13.17647124237488
ONEWEB-0292             
1 49186U 21083A   26197.72246083 -.00000107  00000+0 -32914-3 0  9990
2 49186  87.8981 314.3602 0001814  97.0870 263.0465 13.13469202234809
ONEWEB-0303             
1 49187U 21083B   26197.81977228 -.00000012  00000+0 -64020-4 0  9992
2 49187  87.9195 329.5637 0001805  94.5099 265.6240 13.18684264233887
ONEWEB-0306             
1 49188U 21083C   26197.35440569 -.00000012  00000+0 -64385-4 0  9999
2 49188  87.9199 329.6455 0002108 101.0240 259.1129 13.18684857233860
ONEWEB-0307             
1 49189U 21083D   26197.56417549  .00000077  00000+0  17494-3 0  9992
2 49189  87.8981 314.3892 0001911  96.5661 263.5685 13.13468308234785
